start=new Date('2022-06-12T00:00:00.000Z').valueOf();
sats=[{"MEAN_MOTION_DDOT":"0.0000000000000","DECAY_DATE":null,"APOAPSIS":"351.147","MEAN_MOTION":"15.73184963","MEAN_ELEMENT_THEORY":"SGP4","EPHEMERIS_TYPE":"0","FILE":"3492149","PERIAPSIS":"348.459","SITE":"AFETR","OBJECT_NAME":"STARLINK-3866","LAUNCH_DATE":"2022-05-06","CLASSIFICATION_TYPE":"U","REF_FRAME":"TEME","TIME_SYSTEM":"UTC","ELEMENT_SET_NO":"999","SEMIMAJOR_AXIS":"6727.938","REV_AT_EPOCH":"130","BSTAR":"0.00004638100000","RCS_SIZE":"LARGE","GP_ID":"205930639","RA_OF_ASC_NODE":"85.5760","OBJECT_TYPE":"PAYLOAD","CENTER_NAME":"EARTH","COUNTRY_CODE":"US","INCLINATION":"53.2177","MEAN_MOTION_DOT":"0.00005889","TLE_LINE1":"1 52500U 22049BB  22162.91667824  .00005889  00000-0  46381-4 0  9991","PERIOD":"91.534","EPOCH":"2022-06-11T22:00:00.999936","OBJECT_ID":"2022-049BB","ARG_OF_PERICENTER":"37.1477","MEAN_ANOMALY":"269.5782","NORAD_CAT_ID":"52500","ECCENTRICITY":"0.00019970","TLE_LINE2":"2 52500  53.2177  85.5760 0001997  37.1477 269.5782 15.73184963  1305"},{"CENTER_NAME":"EARTH","OBJECT_TYPE":"PAYLOAD","COUNTRY_CODE":"US","INCLINATION":"53.2185","MEAN_MOTION_DOT":"-0.00092832","RCS_SIZE":"LARGE","RA_OF_ASC_NODE":"85.5815","GP_ID":"205930008","OBJECT_ID":"2022-049BC","ARG_OF_PERICENTER":"34.1266","EPOCH":"2022-06-11T22:00:00.999936","PERIOD":"91.530","ECCENTRICITY":"0.00018570","TLE_LINE2":"2 52501  53.2185  85.5815 0001857  34.1266 270.6825 15.73252854  1300","MEAN_ANOMALY":"270.6825","NORAD_CAT_ID":"52501","TLE_LINE1":"1 52501U 22049BC  22162.91667824 -.00092832  00000-0 -66277-3 0  9993","REF_FRAME":"TEME","ELEMENT_SET_NO":"999","TIME_SYSTEM":"UTC","DECAY_DATE":null,"APOAPSIS":"350.859","MEAN_MOTION_DDOT":"0.0000000000000","MEAN_ELEMENT_THEORY":"SGP4","EPHEMERIS_TYPE":"0","MEAN_MOTION":"15.73252854","LAUNCH_DATE":"2022-05-06","SITE":"AFETR","OBJECT_NAME":"STARLINK-3907","CLASSIFICATION_TYPE":"U","PERIAPSIS":"348.360","FILE":"3492149","BSTAR":"-0.00066277000000","SEMIMAJOR_AXIS":"6727.744","REV_AT_EPOCH":"130"},{"TLE_LINE1":"1 52502U 22049BD  22162.91667824  .00011510  00000-0  86306-4 0  9992","NORAD_CAT_ID":"52502","MEAN_ANOMALY":"261.1291","TLE_LINE2":"2 52502  53.2171  85.5719 0001463  46.8589 261.1291 15.73201582  1304","ECCENTRICITY":"0.00014630","EPOCH":"2022-06-11T22:00:00.999936","PERIOD":"91.533","ARG_OF_PERICENTER":"46.8589","OBJECT_ID":"2022-049BD","GP_ID":"205930456","RA_OF_ASC_NODE":"85.5719","RCS_SIZE":"LARGE","MEAN_MOTION_DOT":"0.00011510","INCLINATION":"53.2171","COUNTRY_CODE":"US","CENTER_NAME":"EARTH","OBJECT_TYPE":"PAYLOAD","REV_AT_EPOCH":"130","SEMIMAJOR_AXIS":"6727.891","BSTAR":"0.00008630600000","FILE":"3492149","PERIAPSIS":"348.771","LAUNCH_DATE":"2022-05-06","SITE":"AFETR","OBJECT_NAME":"STARLINK-3912","CLASSIFICATION_TYPE":"U","MEAN_MOTION":"15.73201582","EPHEMERIS_TYPE":"0","MEAN_ELEMENT_THEORY":"SGP4","MEAN_MOTION_DDOT":"0.0000000000000","DECAY_DATE":null,"APOAPSIS":"350.740","TIME_SYSTEM":"UTC","ELEMENT_SET_NO":"999","REF_FRAME":"TEME"},{"MEAN_MOTION":"15.73207298","MEAN_ELEMENT_THEORY":"SGP4","EPHEMERIS_TYPE":"0","MEAN_MOTION_DDOT":"0.0000000000000","DECAY_DATE":null,"APOAPSIS":"350.860","FILE":"3492149","PERIAPSIS":"348.619","LAUNCH_DATE":"2022-05-06","SITE":"AFETR","CLASSIFICATION_TYPE":"U","OBJECT_NAME":"STARLINK-3861","REF_FRAME":"TEME","TIME_SYSTEM":"UTC","ELEMENT_SET_NO":"999","SEMIMAJOR_AXIS":"6727.874","REV_AT_EPOCH":"130","BSTAR":"0.00008419900000","RCS_SIZE":"LARGE","GP_ID":"205930248","RA_OF_ASC_NODE":"85.5730","OBJECT_TYPE":"PAYLOAD","CENTER_NAME":"EARTH","INCLINATION":"53.2171","MEAN_MOTION_DOT":"0.00011216","COUNTRY_CODE":"US","TLE_LINE1":"1 52503U 22049BE  22162.91667824  .00011216  00000-0  84199-4 0  9994","PERIOD":"91.533","EPOCH":"2022-06-11T22:00:00.999936","ARG_OF_PERICENTER":"38.1248","OBJECT_ID":"2022-049BE","NORAD_CAT_ID":"52503","MEAN_ANOMALY":"269.2331","TLE_LINE2":"2 52503  53.2171  85.5730 0001665  38.1248 269.2331 15.73207298  1302","ECCENTRICITY":"0.00016650"},{"TLE_LINE1":"1 52533U 22051A   22162.91667824 -.00714659  00000-0 -11291-1 0  9993","NORAD_CAT_ID":"52533","MEAN_ANOMALY":"126.5068","TLE_LINE2":"2 52533  53.2174 150.3138 0001428  55.8769 126.5068 15.55358373  1305","ECCENTRICITY":"0.00014280","EPOCH":"2022-06-11T22:00:00.999936","PERIOD":"92.583","OBJECT_ID":"2022-051A","ARG_OF_PERICENTER":"55.8769","GP_ID":"205930567","RA_OF_ASC_NODE":"150.3138","RCS_SIZE":"LARGE","MEAN_MOTION_DOT":"-0.00714659","INCLINATION":"53.2174","COUNTRY_CODE":"US","OBJECT_TYPE":"PAYLOAD","CENTER_NAME":"EARTH","REV_AT_EPOCH":"130","SEMIMAJOR_AXIS":"6779.248","BSTAR":"-0.01129100000000","FILE":"3492149","PERIAPSIS":"400.145","SITE":"AFWTR","LAUNCH_DATE":"2022-05-13","OBJECT_NAME":"STARLINK-3951","CLASSIFICATION_TYPE":"U","MEAN_MOTION":"15.55358373","MEAN_ELEMENT_THEORY":"SGP4","EPHEMERIS_TYPE":"0","MEAN_MOTION_DDOT":"0.0000000000000","APOAPSIS":"402.081","DECAY_DATE":null,"ELEMENT_SET_NO":"999","TIME_SYSTEM":"UTC","REF_FRAME":"TEME"},{"FILE":"3492149","PERIAPSIS":"400.187","SITE":"AFWTR","LAUNCH_DATE":"2022-05-13","OBJECT_NAME":"STARLINK-3952","CLASSIFICATION_TYPE":"U","MEAN_MOTION_DDOT":"0.0000000000000","DECAY_DATE":null,"APOAPSIS":"402.093","MEAN_MOTION":"15.55349141","EPHEMERIS_TYPE":"0","MEAN_ELEMENT_THEORY":"SGP4","ELEMENT_SET_NO":"999","TIME_SYSTEM":"UTC","REF_FRAME":"TEME","REV_AT_EPOCH":"130","SEMIMAJOR_AXIS":"6779.275","BSTAR":"-0.01129500000000","GP_ID":"205930356","RA_OF_ASC_NODE":"150.2975","RCS_SIZE":"LARGE","COUNTRY_CODE":"US","INCLINATION":"53.2174","MEAN_MOTION_DOT":"-0.00714662","OBJECT_TYPE":"PAYLOAD","CENTER_NAME":"EARTH","TLE_LINE1":"1 52534U 22051B   22162.91667824 -.00714662  00000-0 -11295-1 0  9992","MEAN_ANOMALY":"121.6801","NORAD_CAT_ID":"52534","ECCENTRICITY":"0.00014060","TLE_LINE2":"2 52534  53.2174 150.2975 0001406  59.1339 121.6801 15.55349141  1304","EPOCH":"2022-06-11T22:00:00.999936","PERIOD":"92.584","OBJECT_ID":"2022-051B","ARG_OF_PERICENTER":"59.1339"},{"SITE":"AFWTR","LAUNCH_DATE":"2022-05-13","OBJECT_NAME":"STARLINK-3958","CLASSIFICATION_TYPE":"U","FILE":"3492149","PERIAPSIS":"400.210","DECAY_DATE":null,"APOAPSIS":"402.042","MEAN_MOTION_DDOT":"0.0000000000000","EPHEMERIS_TYPE":"0","MEAN_ELEMENT_THEORY":"SGP4","MEAN_MOTION":"15.55353846","ELEMENT_SET_NO":"999","TIME_SYSTEM":"UTC","REF_FRAME":"TEME","REV_AT_EPOCH":"130","SEMIMAJOR_AXIS":"6779.261","BSTAR":"-0.01129500000000","RA_OF_ASC_NODE":"150.3070","GP_ID":"205930116","RCS_SIZE":"LARGE","COUNTRY_CODE":"US","MEAN_MOTION_DOT":"-0.00714767","INCLINATION":"53.2174","OBJECT_TYPE":"PAYLOAD","CENTER_NAME":"EARTH","TLE_LINE1":"1 52535U 22051C   22162.91667824 -.00714767  00000-0 -11295-1 0  9999","TLE_LINE2":"2 52535  53.2174 150.3070 0001351  62.9723 118.6265 15.55353846  1307","ECCENTRICITY":"0.00013510","NORAD_CAT_ID":"52535","MEAN_ANOMALY":"118.6265","OBJECT_ID":"2022-051C","ARG_OF_PERICENTER":"62.9723","PERIOD":"92.583","EPOCH":"2022-06-11T22:00:00.999936"},{"REV_AT_EPOCH":"130","SEMIMAJOR_AXIS":"6779.235","BSTAR":"-0.01129000000000","SITE":"AFWTR","LAUNCH_DATE":"2022-05-13","CLASSIFICATION_TYPE":"U","OBJECT_NAME":"STARLINK-3964","FILE":"3492149","PERIAPSIS":"400.178","DECAY_DATE":null,"APOAPSIS":"402.022","MEAN_MOTION_DDOT":"0.0000000000000","MEAN_ELEMENT_THEORY":"SGP4","EPHEMERIS_TYPE":"0","MEAN_MOTION":"15.55362934","TIME_SYSTEM":"UTC","ELEMENT_SET_NO":"999","REF_FRAME":"TEME","TLE_LINE1":"1 52536U 22051D   22162.91667824 -.00714699  00000-0 -11290-1 0  9999","ECCENTRICITY":"0.00013600","TLE_LINE2":"2 52536  53.2174 150.3152 0001360  62.2352 120.9334 15.55362934  1301","MEAN_ANOMALY":"120.9334","NORAD_CAT_ID":"52536","ARG_OF_PERICENTER":"62.2352","OBJECT_ID":"2022-051D","EPOCH":"2022-06-11T22:00:00.999936","PERIOD":"92.583","RA_OF_ASC_NODE":"150.3152","GP_ID":"205929906","RCS_SIZE":"LARGE","COUNTRY_CODE":"US","MEAN_MOTION_DOT":"-0.00714699","INCLINATION":"53.2174","CENTER_NAME":"EARTH","OBJECT_TYPE":"PAYLOAD"},{"ELEMENT_SET_NO":"999","TIME_SYSTEM":"UTC","REF_FRAME":"TEME","LAUNCH_DATE":"2022-05-13","SITE":"AFWTR","CLASSIFICATION_TYPE":"U","OBJECT_NAME":"STARLINK-3897","PERIAPSIS":"400.105","FILE":"3492149","DECAY_DATE":null,"APOAPSIS":"402.068","MEAN_MOTION_DDOT":"0.0000000000000","MEAN_ELEMENT_THEORY":"SGP4","EPHEMERIS_TYPE":"0","MEAN_MOTION":"15.55367477","BSTAR":"-0.01128400000000","REV_AT_EPOCH":"130","SEMIMAJOR_AXIS":"6779.222","COUNTRY_CODE":"US","MEAN_MOTION_DOT":"-0.00714477","INCLINATION":"53.2174","OBJECT_TYPE":"PAYLOAD","CENTER_NAME":"EARTH","RA_OF_ASC_NODE":"150.3248","GP_ID":"205930643","RCS_SIZE":"LARGE","TLE_LINE2":"2 52537  53.2174 150.3248 0001448  56.9174 127.0359 15.55367477  1309","ECCENTRICITY":"0.00014480","MEAN_ANOMALY":"127.0359","NORAD_CAT_ID":"52537","ARG_OF_PERICENTER":"56.9174","OBJECT_ID":"2022-051E","PERIOD":"92.583","EPOCH":"2022-06-11T22:00:00.999936","TLE_LINE1":"1 52537U 22051E   22162.91667824 -.00714477  00000-0 -11284-1 0  9997"},{"MEAN_MOTION_DOT":"-0.00714633","INCLINATION":"53.2174","COUNTRY_CODE":"US","CENTER_NAME":"EARTH","OBJECT_TYPE":"PAYLOAD","RA_OF_ASC_NODE":"150.3442","GP_ID":"205930012","RCS_SIZE":"LARGE","ECCENTRICITY":"0.00013740","TLE_LINE2":"2 52538  53.2174 150.3442 0001374  61.5430 123.9795 15.55376811  1302","MEAN_ANOMALY":"123.9795","NORAD_CAT_ID":"52538","ARG_OF_PERICENTER":"61.5430","OBJECT_ID":"2022-051F","EPOCH":"2022-06-11T22:00:00.999936","PERIOD":"92.582","TLE_LINE1":"1 52538U 22051F   22162.91667824 -.00714633  00000-0 -11283-1 0  9991","TIME_SYSTEM":"UTC","ELEMENT_SET_NO":"999","REF_FRAME":"TEME","LAUNCH_DATE":"2022-05-13","SITE":"AFWTR","OBJECT_NAME":"STARLINK-3933","CLASSIFICATION_TYPE":"U","FILE":"3492149","PERIAPSIS":"400.128","MEAN_ELEMENT_THEORY":"SGP4","EPHEMERIS_TYPE":"0","MEAN_MOTION":"15.55376811","APOAPSIS":"401.991","DECAY_DATE":null,"MEAN_MOTION_DDOT":"0.0000000000000","BSTAR":"-0.01128300000000","REV_AT_EPOCH":"130","SEMIMAJOR_AXIS":"6779.195"}];
